ONEWEB-0012             
1 44057U 19010A   25264.29993972 -.00000037  00000+0 -13162-3 0  9997
2 44057  87.8967 282.3859 0001876  78.2607 281.8734 13.16594851316181
ONEWEB-0010             
1 44058U 19010B   25264.09727965  .00000000  00000+0 -33119-4 0  9997
2 44058  87.8969 282.4098 0001561 101.7428 258.3878 13.16595040316206
ONEWEB-0008             
1 44059U 19010C   25264.12259674  .00000149  00000+0  35546-3 0  9997
2 44059  87.8963 282.4021 0002041  91.9534 268.1831 13.16592409316326
ONEWEB-0007             
1 44060U 19010D   25264.17215901 -.00000071  00000+0 -22289-3 0  9995
2 44060  87.9018 312.9131 0001552  95.2851 264.8457 13.15549017316004
ONEWEB-0006             
1 44061U 19010E   25264.17611194 -.00000045  00000+0 -15399-3 0  9995
2 44061  87.9023 312.8534 0001622  99.7725 260.3588 13.15549125316055
ONEWEB-0011             
1 44062U 19010F   25264.22048167  .00000077  00000+0  17031-3 0  9994
2 44062  87.9029 312.8570 0001968 102.8521 257.2829 13.15550435316054
ONEWEB-0013             
1 45131U 20008A   25264.12502791 -.00000520  00000+0 -15480-2 0  9998
2 45131  87.8466 107.1685 0001995  54.3491 305.7821 13.09430258270856
ONEWEB-0017             
1 45132U 20008B   25264.22131433 -.00000088  00000+0 -28749-3 0  9993
2 45132  87.8735  89.9094 0001518  95.9551 264.1750 13.10368371272721
